[{"OBJECT_NAME":"OBJECT G","OBJECT_ID":"2023-072G","EPOCH":"2026-03-09T22:55:55.975872","MEAN_MOTION":15.44986579,"ECCENTRICITY":0.00041016,"INCLINATION":97.502,"RA_OF_ASC_NODE":273.2074,"ARG_OF_PERICENTER":355.3073,"MEAN_ANOMALY":4.8136,"EPHEMERIS_TYPE":0,"CLASSIFICATION_TYPE":"U","NORAD_CAT_ID":56749,"ELEMENT_SET_NO":999,"REV_AT_EPOCH":15511,"BSTAR":0.00066698496,"MEAN_MOTION_DOT":0.00031433,"MEAN_MOTION_DDOT":0},{"OBJECT_NAME":"STARLINK-36752","OBJECT_ID":"2026-026D","EPOCH":"2026-03-09T22:00:01.999584","MEAN_MOTION":15.46482653,"ECCENTRICITY":0.00018907,"INCLINATION":97.2844,"RA_OF_ASC_NODE":123.451,"ARG_OF_PERICENTER":58.7444,"MEAN_ANOMALY":34.5153,"EPHEMERIS_TYPE":0,"CLASSIFICATION_TYPE":"U","NORAD_CAT_ID":67724,"ELEMENT_SET_NO":999,"REV_AT_EPOCH":535,"BSTAR":-0.04296969,"MEAN_MOTION_DOT":-0.01910679,"MEAN_MOTION_DDOT":0}]
